FLOCK 1C-2              
1 40029U 14033V   17345.74454111  .00000916  00000-0  10288-3 0  9991
2 40029  97.9191 258.0973 0015210  76.8247 283.4642 14.89140069188929
